HST                     
1 20580U 90037B   26194.28414128  .00003883  00000+0  11832-3 0  9995
2 20580  28.4725 262.1734 0002226  86.2676 273.8175 15.31049183792575
POLAR                   
1 23802U 96013A   26194.22503656  .00000225  00000+0  00000+0 0  9992
2 23802  79.8886 226.7431 6496555 208.1823  91.5623  1.29846073145198
SWAS                    
1 25560U 98071A   26194.05503219  .00001656  00000+0  10888-3 0  9995
2 25560  69.8938 160.8036 0008082 232.8630 127.1797 15.09739407501172
CXO                     
1 25867U 99040B   26195.82327180  .00000664  00000+0  00000+0 0  9998
2 25867  56.5906 115.8556 7794608 310.0752   0.4008  0.37803281 17429
XMM-NEWTON              
1 25989U 99066A   26193.28213418  .00000088  00000+0  00000+0 0  9997
2 25989  64.3559 282.6652 4668218  64.4827   0.1151  0.50124873 23131
TERRA                   
1 25994U 99068A   26194.24875213  .00000202  00000+0  50030-4 0  9990
2 25994  97.9443 242.7599 0003331 126.7557 308.3345 14.61122807413419
CLUSTER II-FM7 (SAMBA)  
1 26410U 00041A   26192.68021872  .00012833  00000+0  00000+0 0  9997
2 26410 149.8437  55.3938 9082311 272.8334 359.6328  0.44896530 20420
CLUSTER II-FM8 (TANGO)  
1 26464U 00045B   26193.20008498  .00013279  00000+0  00000+0 0  9993
2 26464 150.0475  56.7154 9087598 274.0139   2.1073  0.44413276 20428
ODIN                    
1 26702U 01007A   26193.66099178  .00297616  00000+0  10674-2 0  9992
2 26702  97.3743 236.4394 0004666 145.8846 214.2726 15.88033839393424
TIMED                   
1 26998U 01055B   26194.30138436  .00000597  00000+0  57706-4 0  9994
2 26998  74.0665 182.4354 0002171 302.7656  57.3319 14.95342335334727
CORIOLIS                
1 27640U 03001A   26193.91687180  .00000058  00000+0  47748-4 0  9990
2 27640  98.7134 200.4092 0014815 135.2927 224.9446 14.19951423217873
SORCE                   
1 27651U 03004A   26194.17261998  .00001531  00000+0  11990-3 0  9995
2 27651  39.9908 113.4042 0018576 240.8928 119.0006 15.03836025275819
MOST                    
1 27843U 03031D   26193.97646442  .00000023  00000+0  30752-4 0  9999
2 27843  98.7052 201.3428 0009942 171.3583 188.7767 14.21327400194371
SCISAT 1                
1 27858U 03036A   26194.22429381  .00000314  00000+0  44741-4 0  9996
2 27858  73.9302 119.6108 0007465 188.1685 171.9371 14.81477673235301
SWIFT                   
1 28485U 04047A   26194.11647834  .00048724  00000+0  36183-3 0  9996
2 28485  20.5531 344.5042 0001841 359.4945   0.5499 15.70998544190942
HINODE (SOLAR-B)        
1 29479U 06041A   26194.00707365  .00000341  00000+0  66879-4 0  9999
2 29479  98.0549 209.7790 0016869 201.5609 158.4888 14.68656738 58666
SHIJIAN-6 02A (SJ-6 02A)
1 29505U 06046A   26194.27668243  .00002715  00000+0  14002-3 0  9991
2 29505  97.6347 235.5417 0004407  67.9070 292.2630 15.17230840 76222
SHIJIAN-6 02B (SJ-6 02B)
1 29506U 06046B   26194.33812015  .00000546  00000+0  46954-4 0  9999
2 29506  97.7154 223.2350 0013605 342.7508  17.3252 15.01435596 74660
FGRST (GLAST)           
1 33053U 08029A   26193.89505711  .00002204  00000+0  74760-4 0  9995
2 33053  25.5828  25.9616 0007745 270.8522  89.1128 15.24068637999765
SDO                     
1 36395U 10005A   26194.20034538 -.00000107  00000+0  00000+0 0  9996
2 36395  34.7041  85.9474 0001955  51.9513 123.0341  1.00277100 60321
CRYOSAT 2               
1 36508U 10013A   26194.27117754  .00000137  00000+0  33362-4 0  9994
2 36508  92.0358 283.6428 0002360  98.4040 261.7435 14.51897976861864
X-SAT                   
1 37389U 11015C   26194.27165047  .00000259  00000+0  12774-3 0  9991
2 37389  98.3521 170.0545 0012691 267.2066  92.7662 14.25214267791395
GCOM-W1 (SHIZUKU)       
1 38337U 12025A   26194.28388076  .00000212  00000+0  57132-4 0  9994
2 38337  98.2024 134.4450 0001333  77.1165  86.6575 14.57089227752836
NUSTAR                  
1 38358U 12031A   26194.25003472  .00001402  00000+0  33578-4 0  9995
2 38358   6.0240 198.6029 0007471 142.5954  69.7533 15.09034489  1305
NEOSSAT                 
1 39089U 13009D   26193.99346259  .00000068  00000+0  38154-4 0  9998
2 39089  98.4188  13.4139 0011312 163.5412 196.6144 14.35835154700445
BRITE-AUSTRIA           
1 39091U 13009F   26193.97923961  .00000089  00000+0  44937-4 0  9999
2 39091  98.4006  12.7781 0010641 156.9749 203.1916 14.36551985700758
IRIS                    
1 39197U 13033A   26193.55206302  .00000532  00000+0  67113-4 0  9994
2 39197  97.9320  32.7491 0023181 234.1182 125.7881 14.85933684704142
HISAKI (SPRINT-A)       
1 39253U 13049A   26193.97917040  .00000078  00000+0  14580-4 0  9993
2 39253  29.7206  88.8790 0136944 225.9387 132.9837 13.55546585634927
CASSIOPE                
1 39265U 13055A   26194.25252198  .00022660 -53088-6  24301-3 0  9995
2 39265  80.9124  35.0088 0283292 334.4987  24.2486 15.27336772671642
STSAT-3                 
1 39422U 13066G   26194.27990356  .00001437  00000+0  11162-3 0  9997
2 39422  97.6186 163.7472 0008956 313.4195  46.6284 15.02879906688125
SWARM B                 
1 39451U 13067A   26194.31927380  .00002105  00000+0  74171-4 0  9995
2 39451  87.7457 334.3777 0002401  82.8061 277.3461 15.28709949687238
